0 OPS 4682 DEB
1 38458U 65027FP  13274.36271764  .00000034  00000-0  10000-3 0   791
2 38458 090.2765 247.9605 0033084 144.1317 216.1399 12.91927334511112
0 OPS 4682 DEB
1 38458U 65027FP  13274.39603365 -.00000070  00000-0 -28642-3 0   782
2 38458 090.2803 247.9627 0032054 143.6941 011.4598 12.91932743511120
0 OPS 4682 DEB
1 38458U 65027FP  13281.18983948  .00000223  00000-0  80260-3 0   800
2 38458 090.2801 248.1377 0033545 124.2309 290.8568 12.91929986511992
0 OPS 4682 DEB
1 38458U 65027FP  13283.37989429 -.00000165  00000-0 -63973-3 0   813
2 38458 090.2807 248.1928 0032924 120.4079 034.7933 12.91934441512288
0 OPS 4682 DEB
1 38458U 65027FP  13288.33667900  .00000444  00000-0  16222-2 0   824
2 38458 090.2837 248.3183 0033351 108.2124 047.8985 12.91931938512927
